{
  "type": "FeatureCollection",
  "features": [
    {
      "type": "Feature",
      "properties": {
        "norad_id": 28054,
        "name": "DMSP 5D-3 F16 (USA 172)",
        "group": "weather",
        "lat": -3.2645281809190236,
        "lon": 19.06327536984241,
        "alt_km": 846.9017119239752,
        "timestamp": "2025-12-26T23:26:41.799766+00:00",
        "meta_object_name": "DMSP 5D-3 F16 (USA 172)",
        "meta_object_id": "2003-048A",
        "meta_epoch": "2025-12-26T13:44:48.692256",
        "meta_mean_motion": 14.14429016,
        "meta_eccentricity": 0.00062431,
        "meta_inclination": 99.0038,
        "meta_ra_of_asc_node": 18.1379,
        "meta_arg_of_pericenter": 276.4182,
        "meta_mean_anomaly": 183.8785,
        "meta_ephemeris_type": 0,
        "meta_classification_type": "U",
        "meta_norad_cat_id": 28054,
        "meta_element_set_no": 999,
        "meta_rev_at_epoch": 14508,
        "meta_bstar": 8.8263469e-05,
        "meta_mean_motion_dot": 1.23e-06,
        "meta_mean_motion_ddot": 0,
        "tle_line1": "1 28054U 03048A   25360.57278579  .00000123  00000+0  88263-4 0  9996",
        "tle_line2": "2 28054  99.0038  18.1379 0006243 276.4182 183.8785 14.14429016145084"
      },
      "geometry": {
        "type": "Point",
        "coordinates": [
          19.06327536984241,
          -3.2645281809190236
        ]
      }
    },
    {
      "type": "Feature",
      "properties": {
        "norad_id": 28912,
        "name": "METEOSAT-9 (MSG-2)",
        "group": "weather",
        "lat": 8.733442699055313,
        "lon": 132.37654420906526,
        "alt_km": 36058.631203608566,
        "timestamp": "2025-12-26T23:26:41.799816+00:00",
        "meta_object_name": "METEOSAT-9 (MSG-2)",
        "meta_object_id": "2005-049B",
        "meta_epoch": "2025-12-24T18:27:10.310976",
        "meta_mean_motion": 1.00268275,
        "meta_eccentricity": 0.00719695,
        "meta_inclination": 8.9553,
        "meta_ra_of_asc_node": 55.846,
        "meta_arg_of_pericenter": 282.2974,
        "meta_mean_anomaly": 77.0088,
        "meta_ephemeris_type": 0,
        "meta_classification_type": "U",
        "meta_norad_cat_id": 28912,
        "meta_element_set_no": 999,
        "meta_rev_at_epoch": 524,
        "meta_bstar": 0,
        "meta_mean_motion_dot": 1.45e-06,
        "meta_mean_motion_ddot": 0,
        "tle_line1": "1 28912U 05049B   25358.76886934  .00000145  00000+0  00000+0 0  9992",
        "tle_line2": "2 28912   8.9553  55.8460 0071969 282.2974  77.0088  1.00268275  5240"
      },
      "geometry": {
        "type": "Point",
        "coordinates": [
          132.37654420906526,
          8.733442699055313
        ]
      }
    },
    {
      "type": "Feature",
      "properties": {
        "norad_id": 29522,
        "name": "DMSP 5D-3 F17 (USA 191)",
        "group": "weather",
        "lat": -37.32696888470172,
        "lon": 12.80544115315618,
        "alt_km": 854.3918625350898,
        "timestamp": "2025-12-26T23:26:41.799832+00:00",
        "meta_object_name": "DMSP 5D-3 F17 (USA 191)",
        "meta_object_id": "2006-050A",
        "meta_epoch": "2025-12-26T13:26:26.992896",
        "meta_mean_motion": 14.14925425,
        "meta_eccentricity": 0.00100074,
        "meta_inclination": 98.7393,
        "meta_ra_of_asc_node": 5.6613,
        "meta_arg_of_pericenter": 183.8317,
        "meta_mean_anomaly": 176.2782,
        "meta_ephemeris_type": 0,
        "meta_classification_type": "U",
        "meta_norad_cat_id": 29522,
        "meta_element_set_no": 999,
        "meta_rev_at_epoch": 98800,
        "meta_bstar": 0.00011417174,
        "meta_mean_motion_dot": 1.77e-06,
        "meta_mean_motion_ddot": 0,
        "tle_line1": "1 29522U 06050A   25360.56003464  .00000177  00000+0  11417-3 0  9996",
        "tle_line2": "2 29522  98.7393   5.6613 0010007 183.8317 176.2782 14.14925425988006"
      },
      "geometry": {
        "type": "Point",
        "coordinates": [
          12.80544115315618,
          -37.32696888470172
        ]
      }
    },
    {
      "type": "Feature",
      "properties": {
        "norad_id": 32958,
        "name": "FENGYUN 3A",
        "group": "weather",
        "lat": -81.22965478637914,
        "lon": 21.76595586442809,
        "alt_km": 828.865236538627,
        "timestamp": "2025-12-26T23:26:41.799844+00:00",
        "meta_object_name": "FENGYUN 3A",
        "meta_object_id": "2008-026A",
        "meta_epoch": "2025-12-26T18:47:13.255584",
        "meta_mean_motion": 14.19518988,
        "meta_eccentricity": 0.0007616,
        "meta_inclination": 98.6714,
        "meta_ra_of_asc_node": 300.015,
        "meta_arg_of_pericenter": 264.726,
        "meta_mean_anomaly": 95.3047,
        "meta_ephemeris_type": 0,
        "meta_classification_type": "U",
        "meta_norad_cat_id": 32958,
        "meta_element_set_no": 999,
        "meta_rev_at_epoch": 91094,
        "meta_bstar": 8.3254e-05,
        "meta_mean_motion_dot": 1.32e-06,
        "meta_mean_motion_ddot": 0,
        "tle_line1": "1 32958U 08026A   25360.78279231  .00000132  00000+0  83254-4 0  9999",
        "tle_line2": "2 32958  98.6714 300.0150 0007616 264.7260  95.3047 14.19518988910945"
      },
      "geometry": {
        "type": "Point",
        "coordinates": [
          21.76595586442809,
          -81.22965478637914
        ]
      }
    },
    {
      "type": "Feature",
      "properties": {
        "norad_id": 35491,
        "name": "GOES 14",
        "group": "weather",
        "lat": -1.1204355479961237,
        "lon": -31.338899254685558,
        "alt_km": 35833.134259625855,
        "timestamp": "2025-12-26T23:26:41.799856+00:00",
        "meta_object_name": "GOES 14",
        "meta_object_id": "2009-033A",
        "meta_epoch": "2025-12-26T12:10:38.039808",
        "meta_mean_motion": 1.00097067,
        "meta_eccentricity": 7.66e-05,
        "meta_inclination": 1.2376,
        "meta_ra_of_asc_node": 85.2609,
        "meta_arg_of_pericenter": 194.3443,
        "meta_mean_anomaly": 239.8772,
        "meta_ephemeris_type": 0,
        "meta_classification_type": "U",
        "meta_norad_cat_id": 35491,
        "meta_element_set_no": 999,
        "meta_rev_at_epoch": 486,
        "meta_bstar": 0,
        "meta_mean_motion_dot": 4.3e-07,
        "meta_mean_motion_ddot": 0,
        "tle_line1": "1 35491U 09033A   25360.50738472  .00000043  00000+0  00000+0 0  9994",
        "tle_line2": "2 35491   1.2376  85.2609 0000766 194.3443 239.8772  1.00097067  4866"
      },
      "geometry": {
        "type": "Point",
        "coordinates": [
          -31.338899254685558,
          -1.1204355479961237
        ]
      }
    },
    {
      "type": "Feature",
      "properties": {
        "norad_id": 35951,
        "name": "DMSP 5D-3 F18 (USA 210)",
        "group": "weather",
        "lat": -2.2824226912008236,
        "lon": 156.95037492672245,
        "alt_km": 854.0038945609604,
        "timestamp": "2025-12-26T23:26:41.799868+00:00",
        "meta_object_name": "DMSP 5D-3 F18 (USA 210)",
        "meta_object_id": "2009-057A",
        "meta_epoch": "2025-12-26T17:29:42.131904",
        "meta_mean_motion": 14.14778458,
        "meta_eccentricity": 0.0011633,
        "meta_inclination": 98.8851,
        "meta_ra_of_asc_node": 337.0609,
        "meta_arg_of_pericenter": 25.7025,
        "meta_mean_anomaly": 334.4724,
        "meta_ephemeris_type": 0,
        "meta_classification_type": "U",
        "meta_norad_cat_id": 35951,
        "meta_element_set_no": 999,
        "meta_rev_at_epoch": 83520,
        "meta_bstar": 0.00017699,
        "meta_mean_motion_dot": 2.97e-06,
        "meta_mean_motion_ddot": 0,
        "tle_line1": "1 35951U 09057A   25360.72895986  .00000297  00000+0  17699-3 0  9996",
        "tle_line2": "2 35951  98.8851 337.0609 0011633  25.7025 334.4724 14.14778458835201"
      },
      "geometry": {
        "type": "Point",
        "coordinates": [
          156.95037492672245,
          -2.2824226912008236
        ]
      }
    },
    {
      "type": "Feature",
      "properties": {
        "norad_id": 36411,
        "name": "EWS-G2 (GOES 15)",
        "group": "weather",
        "lat": 0.7642863484863276,
        "lon": 148.66849221048568,
        "alt_km": 35797.07739418197,
        "timestamp": "2025-12-26T23:26:41.799879+00:00",
        "meta_object_name": "EWS-G2 (GOES 15)",
        "meta_object_id": "2010-008A",
        "meta_epoch": "2025-12-26T18:08:44.994048",
        "meta_mean_motion": 1.00271008,
        "meta_eccentricity": 0.0005656,
        "meta_inclination": 0.8463,
        "meta_ra_of_asc_node": 86.065,
        "meta_arg_of_pericenter": 179.6138,
        "meta_mean_anomaly": 163.353,
        "meta_ephemeris_type": 0,
        "meta_classification_type": "U",
        "meta_norad_cat_id": 36411,
        "meta_element_set_no": 999,
        "meta_rev_at_epoch": 5790,
        "meta_bstar": 0,
        "meta_mean_motion_dot": 6e-07,
        "meta_mean_motion_ddot": 0,
        "tle_line1": "1 36411U 10008A   25360.75607632  .00000060  00000+0  00000+0 0  9990",
        "tle_line2": "2 36411   0.8463  86.0650 0005656 179.6138 163.3530  1.00271008 57901"
      },
      "geometry": {
        "type": "Point",
        "coordinates": [
          148.66849221048568,
          0.7642863484863276
        ]
      }
    }
  ]
}